ONEWEB-0210             
1 48787U 21045W   25106.62256828  .00000009  00000+0 -89516-5 0  9992
2 48787  87.9092 344.1791 0002045  60.5588 299.5746 13.15546927188230
ONEWEB-0214             
1 48788U 21045X   25106.40389275  .00000099  00000+0  23015-3 0  9990
2 48788  87.9092 344.2116 0002109  69.3202 290.8155 13.15551245188174
ONEWEB-0221             
1 48789U 21045Y   25106.41022595 -.00000189  00000+0 -53706-3 0  9993
2 48789  87.9097 344.2369 0001652  77.4053 282.7262 13.15548891188268
ONEWEB-0213             
1 48790U 21045Z   25106.70336978 -.00000018  00000+0 -82108-4 0  9990
2 48790  87.9092 344.1869 0001760  71.3921 288.7400 13.15549444189497
ONEWEB-0212             
1 48791U 21045AA  25106.60433676 -.00000075  00000+0 -23243-3 0  9990
2 48791  87.9097 344.1944 0001703  82.6809 277.4515 13.15550150188345
ONEWEB-0227             
1 48792U 21045AB  25106.60354308 -.00000078  00000+0 -24063-3 0  9999
2 48792  87.9098 344.2077 0001674  77.2006 282.9312 13.15546434188291
ONEWEB-0226             
1 48793U 21045AC  25106.59720899 -.00000089  00000+0 -27031-3 0  9990
2 48793  87.9097 344.2136 0001892  68.3032 291.8300 13.15546625188264
ONEWEB-0224             
1 48794U 21045AD  25106.63681749  .00000157  00000+0  38421-3 0  9995
2 48794  87.9099 344.2393 0000782  82.2030 277.9189 13.15550585189319
